{
    "__header": "Data accessed and file created at 2023-03-06 19:14:22.664845",
    "22220": {
        "gp_hist": [
            {
                "CCSDS_OMM_VERS": "2.0",
                "COMMENT": "GENERATED VIA SPACE-TRACK.ORG API",
                "CREATION_DATE": "2023-03-06T08:26:12",
                "ORIGINATOR": "18 SPCS",
                "OBJECT_NAME": "SL-16 R/B",
                "OBJECT_ID": "1992-076B",
                "CENTER_NAME": "EARTH",
                "REF_FRAME": "TEME",
                "TIME_SYSTEM": "UTC",
                "MEAN_ELEMENT_THEORY": "SGP4",
                "EPOCH": "2023-03-06T05:07:20.026272",
                "MEAN_MOTION": "14.16539181",
                "ECCENTRICITY": "0.00141280",
                "INCLINATION": "71.0030",
                "RA_OF_ASC_NODE": "343.7932",
                "ARG_OF_PERICENTER": "322.5464",
                "MEAN_ANOMALY": "188.2730",
                "EPHEMERIS_TYPE": "0",
                "CLASSIFICATION_TYPE": "U",
                "NORAD_CAT_ID": "22220",
                "ELEMENT_SET_NO": "999",
                "REV_AT_EPOCH": "56644",
                "BSTAR": "0.00006292400000",
                "MEAN_MOTION_DOT": "0.00000078",
                "MEAN_MOTION_DDOT": "0.0000000000000",
                "SEMIMAJOR_AXIS": "7215.218",
                "PERIOD": "101.656",
                "APOAPSIS": "847.276",
                "PERIAPSIS": "826.889",
                "OBJECT_TYPE": "ROCKET BODY",
                "RCS_SIZE": "LARGE",
                "COUNTRY_CODE": "CIS",
                "LAUNCH_DATE": "1992-11-17",
                "SITE": "TTMTR",
                "DECAY_DATE": null,
                "FILE": "3852396",
                "GP_ID": "227588744",
                "TLE_LINE0": "0 SL-16 R/B",
                "TLE_LINE1": "1 22220U 92076B   23065.21342623  .00000078  00000-0  62924-4 0  9993",
                "TLE_LINE2": "2 22220  71.0030 343.7932 0014128 322.5464 188.2730 14.16539181566447"
            }
        ],
        "vimpelId": null,
        "depth": null,
        "name": "Zenit-2 second stage",
        "cosparId": "1992-076B",
        "xSectAvg": 37.8287025400381,
        "shape": "Cyl",
        "width": null,
        "xSectMax": 42.2826001059582,
        "height": 10.4,
        "diameter": 3.9,
        "xSectMin": 11.9459060652752,
        "mass": 8225.97,
        "span": 10.4,
        "satno": 22220,
        "objectClass": "Rocket Body"
    },
    "22566": {
        "gp_hist": [
            {
                "CCSDS_OMM_VERS": "2.0",
                "COMMENT": "GENERATED VIA SPACE-TRACK.ORG API",
                "CREATION_DATE": "2023-03-06T14:36:13",
                "ORIGINATOR": "18 SPCS",
                "OBJECT_NAME": "SL-16 R/B",
                "OBJECT_ID": "1993-016B",
                "CENTER_NAME": "EARTH",
                "REF_FRAME": "TEME",
                "TIME_SYSTEM": "UTC",
                "MEAN_ELEMENT_THEORY": "SGP4",
                "EPOCH": "2023-03-06T07:01:13.620864",
                "MEAN_MOTION": "14.15041986",
                "ECCENTRICITY": "0.00112950",
                "INCLINATION": "71.0103",
                "RA_OF_ASC_NODE": "3.7172",
                "ARG_OF_PERICENTER": "207.2926",
                "MEAN_ANOMALY": "152.7605",
                "EPHEMERIS_TYPE": "0",
                "CLASSIFICATION_TYPE": "U",
                "NORAD_CAT_ID": "22566",
                "ELEMENT_SET_NO": "999",
                "REV_AT_EPOCH": "54664",
                "BSTAR": "0.00024773000000",
                "MEAN_MOTION_DOT": "0.00000433",
                "MEAN_MOTION_DDOT": "0.0000000000000",
                "SEMIMAJOR_AXIS": "7220.306",
                "PERIOD": "101.764",
                "APOAPSIS": "850.327",
                "PERIAPSIS": "834.016",
                "OBJECT_TYPE": "ROCKET BODY",
                "RCS_SIZE": "LARGE",
                "COUNTRY_CODE": "CIS",
                "LAUNCH_DATE": "1993-03-26",
                "SITE": "TTMTR",
                "DECAY_DATE": null,
                "FILE": "3852719",
                "GP_ID": "227594805",
                "TLE_LINE0": "0 SL-16 R/B",
                "TLE_LINE1": "1 22566U 93016B   23065.29251876  .00000433  00000-0  24773-3 0  9992",
                "TLE_LINE2": "2 22566  71.0103   3.7172 0011295 207.2926 152.7605 14.15041986546641"
            }
        ],
        "vimpelId": null,
        "depth": null,
        "name": "Zenit-2 second stage",
        "cosparId": "1993-016B",
        "xSectAvg": 37.8287025400381,
        "shape": "Cyl",
        "width": null,
        "xSectMax": 42.2826001059582,
        "height": 10.4,
        "diameter": 3.9,
        "xSectMin": 11.9459060652752,
        "mass": 8500.0,
        "span": 10.4,
        "satno": 22566,
        "objectClass": "Rocket Body"
    },
    "31793": {
        "gp_hist": [
            {
                "CCSDS_OMM_VERS": "2.0",
                "COMMENT": "GENERATED VIA SPACE-TRACK.ORG API",
                "CREATION_DATE": "2023-03-06T02:27:07",
                "ORIGINATOR": "18 SPCS",
                "OBJECT_NAME": "SL-16 R/B",
                "OBJECT_ID": "2007-029B",
                "CENTER_NAME": "EARTH",
                "REF_FRAME": "TEME",
                "TIME_SYSTEM": "UTC",
                "MEAN_ELEMENT_THEORY": "SGP4",
                "EPOCH": "2023-03-05T23:07:52.212000",
                "MEAN_MOTION": "14.14516405",
                "ECCENTRICITY": "0.00024410",
                "INCLINATION": "70.9782",
                "RA_OF_ASC_NODE": "323.4738",
                "ARG_OF_PERICENTER": "259.2093",
                "MEAN_ANOMALY": "112.0119",
                "EPHEMERIS_TYPE": "0",
                "CLASSIFICATION_TYPE": "U",
                "NORAD_CAT_ID": "31793",
                "ELEMENT_SET_NO": "999",
                "REV_AT_EPOCH": "80984",
                "BSTAR": "0.00025620000000",
                "MEAN_MOTION_DOT": "0.00000444",
                "MEAN_MOTION_DDOT": "0.0000000000000",
                "SEMIMAJOR_AXIS": "7222.095",
                "PERIOD": "101.802",
                "APOAPSIS": "845.723",
                "PERIAPSIS": "842.197",
                "OBJECT_TYPE": "ROCKET BODY",
                "RCS_SIZE": "LARGE",
                "COUNTRY_CODE": "CIS",
                "LAUNCH_DATE": "2007-06-29",
                "SITE": "TTMTR",
                "DECAY_DATE": null,
                "FILE": "3852256",
                "GP_ID": "227569385",
                "TLE_LINE0": "0 SL-16 R/B",
                "TLE_LINE1": "1 31793U 07029B   23064.96379875  .00000444  00000-0  25620-3 0  9990",
                "TLE_LINE2": "2 31793  70.9782 323.4738 0002441 259.2093 112.0119 14.14516405809844"
            }
        ],
        "vimpelId": null,
        "depth": null,
        "name": "Zenit-2 second stage (Zenit-2M)",
        "cosparId": "2007-029B",
        "xSectAvg": 37.8287025400381,
        "shape": "Cyl",
        "width": null,
        "xSectMax": 42.2826001059582,
        "height": 10.4,
        "diameter": 3.9,
        "xSectMin": 11.9459060652752,
        "mass": 9000.0,
        "span": 10.4,
        "satno": 31793,
        "objectClass": "Rocket Body"
    }
}
